GLOBALSTAR M084 [+]     
1 38040U 11080A   23319.86502328 -.00000085  00000+0  10703-3 0  9994
2 38040  52.0034  12.1431 0000438 148.3097  24.2154 12.62267674549784
GLOBALSTAR M080 [+]     
1 38041U 11080B   23319.34304789 -.00000084  00000+0  11129-3 0  9991
2 38041  52.0086  15.1349 0000678 148.2340 291.2676 12.62266110549564
GLOBALSTAR M082 [+]     
1 38042U 11080C   23319.45021347 -.00000091  00000+0  69680-4 0  9994
2 38042  52.0092 330.1932 0000786  22.5326 125.3936 12.62267975550285
GLOBALSTAR M092 [+]     
1 38043U 11080D   23319.48814373 -.00000103  00000+0  63102-5 0  9995
2 38043  52.0097  60.4185 0000541 155.4111 285.6435 12.62262615548749
GLOBALSTAR M090 [+]     
1 38044U 11080E   23319.22406133 -.00000090  00000+0  78862-4 0  9992
2 38044  51.9899 325.4362 0000567  46.6197  33.9623 12.62263489550377
GLOBALSTAR M086 [+]     
1 38045U 11080F   23319.42375269 -.00000088  00000+0  86400-4 0  9994
2 38045  51.9911 325.3357 0001242 101.8484  45.5733 12.62264301550342
GLOBALSTAR M097 [+]     
1 39072U 13005A   23319.18024543 -.00000077  00000+0  14777-3 0  9998
2 39072  52.0045 240.0340 0001097  63.1234 296.9745 12.62272542497564
GLOBALSTAR M093 [+]     
1 39073U 13005B   23319.23295093 -.00000065  00000+0  21710-3 0  9997
2 39073  51.9809 234.1051 0001357  65.3100 294.7908 12.62268830497527
